ORBCOMM FM37 [-]        
1 33064U 08031E   23279.53858620  .00003727  00000+0  57577-3 0  9990
2 33064  48.4418  38.1361 0006674 246.6186 169.8689 14.75165383822434
ORBCOMM FM40 [-]        
1 33065U 08031F   23279.57619940  .00005090  00000+0  75646-3 0  9997
2 33065  48.4444  29.2043 0008112 253.7169 175.5276 14.76213944822457
VESSELSAT 1 [-]         
1 37840U 11058C   23279.55285149  .00000508  00000+0  13318-3 0  9990
2 37840  19.9613 242.3877 0013648 211.6727 148.2856 14.11067034618673
ORBCOMM FM109 [+]       
1 40086U 14040A   23279.56481615  .00001687  00000+0  41778-3 0  9997
2 40086  47.0047  57.3443 0001915 324.0289  36.0467 14.55956674490700
ORBCOMM FM107 [+]       
1 40087U 14040B   23279.53040776  .00001700  00000+0  42055-3 0  9999
2 40087  47.0061  58.4378 0001963 284.4542  75.6125 14.55954717490773
ORBCOMM FM106 [-]       
1 40088U 14040C   23279.54153165  .00002531  00000+0  48874-3 0  9996
2 40088  47.0602 287.2951 0017318  72.7815 287.4969 14.66058519492459
ORBCOMM FM111 [-]       
1 40089U 14040D   23279.25143040  .00005150  00000+0  69279-3 0  9998
2 40089  47.0036 214.7225 0032862 117.6056 242.8182 14.80065243498217
ORBCOMM FM104 [-]       
1 40090U 14040E   23279.55884911  .00001633  00000+0  41770-3 0  9990
2 40090  47.0051  84.8440 0017809 256.8898 102.9998 14.54512865490351
